{"type": "FeatureCollection", "features": [ {"type": "Feature", "properties": {"norad_id": 33650, "name": "FENGYUN 1C DEB", "group": "fengyun-1c-debris", "lat": -44.160908806062366, "lon": 153.6432981356312, "alt_km": 1026.266628399385, "timestamp": "2025-12-05T11:32:56.305349+00:00", "meta": {"OBJECT_NAME": "FENGYUN 1C DEB", "OBJECT_ID": "1999-025DEK", "EPOCH": "2025-11-29T05:22:43.300128", "MEAN_MOTION": 13.89153147, "ECCENTRICITY": 0.01505018, "INCLINATION": 98.9878, "RA_OF_ASC_NODE": 138.7642, "ARG_OF_PERICENTER": 115.9177, "MEAN_ANOMALY": 245.7581, "EPHEMERIS_TYPE": 0, "CLASSIFICATION_TYPE": "U", "NORAD_CAT_ID": 33650, "ELEMENT_SET_NO": 999, "REV_AT_EPOCH": 68621, "BSTAR": 0.00077422425, "MEAN_MOTION_DOT": 9.89e-06, "MEAN_MOTION_DDOT": 0}, "tle": {"line1": "1 33650U 99025DEK 25333.22411227  .00000989  00000+0  77422-3 0  9999", "line2": "2 33650  98.9878 138.7642 0150501 115.9177 245.7581 13.89153147686219"}}, "geometry": {"type": "Point", "coordinates": [153.6432981356312, -44.160908806062366]}}, {"type": "Feature", "properties": {"norad_id": 33651, "name": "FENGYUN 1C DEB", "group": "fengyun-1c-debris", "lat": 45.68155754508229, "lon": -145.80608647050502, "alt_km": 775.3245711355785, "timestamp": "2025-12-05T11:32:56.305359+00:00", "meta": {"OBJECT_NAME": "FENGYUN 1C DEB", "OBJECT_ID": "1999-025DEL", "EPOCH": "2025-12-04T09:34:25.167360", "MEAN_MOTION": 14.2034714, "ECCENTRICITY": 0.0118053, "INCLINATION": 98.6575, "RA_OF_ASC_NODE": 24.1579, "ARG_OF_PERICENTER": 77.9387, "MEAN_ANOMALY": 283.4991, "EPHEMERIS_TYPE": 0, "CLASSIFICATION_TYPE": "U", "NORAD_CAT_ID": 33651, "ELEMENT_SET_NO": 999, "REV_AT_EPOCH": 64153, "BSTAR": 0.00028899, "MEAN_MOTION_DOT": 6.21e-06, "MEAN_MOTION_DDOT": 0}, "tle": {"line1": "1 33651U 99025DEL 25338.39890240  .00000621  00000+0  28899-3 0  9996", "line2": "2 33651  98.6575  24.1579 0118053  77.9387 283.4991 14.20347140641538"}}, "geometry": {"type": "Point", "coordinates": [-145.80608647050502, 45.68155754508229]}}, {"type": "Feature", "properties": {"norad_id": 33655, "name": "FENGYUN 1C DEB", "group": "fengyun-1c-debris", "lat": -26.119095178817478, "lon": 48.183221053177974, "alt_km": 559.3570365769774, "timestamp": "2025-12-05T11:32:56.305369+00:00", "meta": {"OBJECT_NAME": "FENGYUN 1C DEB", "OBJECT_ID": "1999-025DEQ", "EPOCH": "2025-12-02T03:27:53.958528", "MEAN_MOTION": 14.97046756, "ECCENTRICITY": 0.00483741, "INCLINATION": 98.8068, "RA_OF_ASC_NODE": 40.0679, "ARG_OF_PERICENTER": 34.219, "MEAN_ANOMALY": 326.2129, "EPHEMERIS_TYPE": 0, "CLASSIFICATION_TYPE": "U", "NORAD_CAT_ID": 33655, "ELEMENT_SET_NO": 999, "REV_AT_EPOCH": 96399, "BSTAR": 0.00225965, "MEAN_MOTION_DOT": 0.00026675, "MEAN_MOTION_DDOT": 0}, "tle": {"line1": "1 33655U 99025DEQ 25336.14437452  .00026675  00000+0  22597-2 0  9998", "line2": "2 33655  98.8068  40.0679 0048374  34.2190 326.2129 14.97046756963994"}}, "geometry": {"type": "Point", "coordinates": [48.183221053177974, -26.119095178817478]}}, {"type": "Feature", "properties": {"norad_id": 33656, "name": "FENGYUN 1C DEB", "group": "fengyun-1c-debris", "lat": -62.482200409978894, "lon": 135.89201272511613, "alt_km": 887.4873018857506, "timestamp": "2025-12-05T11:32:56.305378+00:00", "meta": {"OBJECT_NAME": "FENGYUN 1C DEB", "OBJECT_ID": "1999-025DER", "EPOCH": "2025-12-01T05:08:12.514272", "MEAN_MOTION": 14.22694091, "ECCENTRICITY": 0.0090964, "INCLINATION": 98.5782, "RA_OF_ASC_NODE": 328.5792, "ARG_OF_PERICENTER": 64.5541, "MEAN_ANOMALY": 296.5016, "EPHEMERIS_TYPE": 0, "CLASSIFICATION_TYPE": "U", "NORAD_CAT_ID": 33656, "ELEMENT_SET_NO": 999, "REV_AT_EPOCH": 62545, "BSTAR": 0.00046353, "MEAN_MOTION_DOT": 1.041e-05, "MEAN_MOTION_DDOT": 0}, "tle": {"line1": "1 33656U 99025DER 25335.21403373  .00001041  00000+0  46353-3 0  9998", "line2": "2 33656  98.5782 328.5792 0090964  64.5541 296.5016 14.22694091625452"}}, "geometry": {"type": "Point", "coordinates": [135.89201272511613, -62.482200409978894]}}, {"type": "Feature", "properties": {"norad_id": 33658, "name": "FENGYUN 1C DEB", "group": "fengyun-1c-debris", "lat": 79.77709642384389, "lon": 63.609601970598334, "alt_km": 1097.7172678979841, "timestamp": "2025-12-05T11:32:56.305388+00:00", "meta": {"OBJECT_NAME": "FENGYUN 1C DEB", "OBJECT_ID": "1999-025DET", "EPOCH": "2025-12-02T16:07:19.695936", "MEAN_MOTION": 13.62248134, "ECCENTRICITY": 0.02842159, "INCLINATION": 99.5636, "RA_OF_ASC_NODE": 130.05, "ARG_OF_PERICENTER": 206.7255, "MEAN_ANOMALY": 151.8999, "EPHEMERIS_TYPE": 0, "CLASSIFICATION_TYPE": "U", "NORAD_CAT_ID": 33658, "ELEMENT_SET_NO": 999, "REV_AT_EPOCH": 58002, "BSTAR": 0.0047533349, "MEAN_MOTION_DOT": 4.778e-05, "MEAN_MOTION_DDOT": 0}, "tle": {"line1": "1 33658U 99025DET 25336.67175574  .00004778  00000+0  47533-2 0  9990", "line2": "2 33658  99.5636 130.0500 0284215 206.7255 151.8999 13.62248134580024"}}, "geometry": {"type": "Point", "coordinates": [63.609601970598334, 79.77709642384389]}}, {"type": "Feature", "properties": {"norad_id": 33660, "name": "FENGYUN 1C DEB", "group": "fengyun-1c-debris", "lat": -5.146201707793093, "lon": -108.0644224948902, "alt_km": 923.1256874602759, "timestamp": "2025-12-05T11:32:56.305398+00:00", "meta": {"OBJECT_NAME": "FENGYUN 1C DEB", "OBJECT_ID": "1999-025DEV", "EPOCH": "2025-12-04T12:17:22.477344", "MEAN_MOTION": 13.91753868, "ECCENTRICITY": 0.0110041, "INCLINATION": 98.6562, "RA_OF_ASC_NODE": 250.2448, "ARG_OF_PERICENTER": 269.0021, "MEAN_ANOMALY": 271.6091, "EPHEMERIS_TYPE": 0, "CLASSIFICATION_TYPE": "U", "NORAD_CAT_ID": 33660, "ELEMENT_SET_NO": 999, "REV_AT_EPOCH": 90949, "BSTAR": 0.001052, "MEAN_MOTION_DOT": 1.364e-05, "MEAN_MOTION_DDOT": 0}, "tle": {"line1": "1 33660U 99025DEV 25338.51206571  .00001364  00000+0  10520-2 0  9994", "line2": "2 33660  98.6562 250.2448 0110041 269.0021 271.6091 13.91753868909496"}}, "geometry": {"type": "Point", "coordinates": [-108.0644224948902, -5.146201707793093]}}, {"type": "Feature", "properties": {"norad_id": 33663, "name": "FENGYUN 1C DEB", "group": "fengyun-1c-debris", "lat": 48.61728402495676, "lon": -40.086251173715354, "alt_km": 627.695417455232, "timestamp": "2025-12-05T11:32:56.305408+00:00", "meta": {"OBJECT_NAME": "FENGYUN 1C DEB", "OBJECT_ID": "1999-025DEY", "EPOCH": "2025-12-03T05:05:31.392960", "MEAN_MOTION": 14.61049241, "ECCENTRICITY": 0.0083574, "INCLINATION": 98.8831, "RA_OF_ASC_NODE": 327.7042, "ARG_OF_PERICENTER": 41.7093, "MEAN_ANOMALY": 319.0438, "EPHEMERIS_TYPE": 0, "CLASSIFICATION_TYPE": "U", "NORAD_CAT_ID": 33663, "ELEMENT_SET_NO": 999, "REV_AT_EPOCH": 64063, "BSTAR": 0.0084154, "MEAN_MOTION_DOT": 0.00043621, "MEAN_MOTION_DDOT": 0}, "tle": {"line1": "1 33663U 99025DEY 25337.21216890  .00043621  00000+0  84154-2 0  9994", "line2": "2 33663  98.8831 327.7042 0083574  41.7093 319.0438 14.61049241640635"}}, "geometry": {"type": "Point", "coordinates": [-40.086251173715354, 48.61728402495676]}}, {"type": "Feature", "properties": {"norad_id": 33664, "name": "FENGYUN 1C DEB", "group": "fengyun-1c-debris", "lat": -2.8100100548903457, "lon": 128.9593456665658, "alt_km": 827.8954550314247, "timestamp": "2025-12-05T11:32:56.305418+00:00", "meta": {"OBJECT_NAME": "FENGYUN 1C DEB", "OBJECT_ID": "1999-025DEZ", "EPOCH": "2025-12-02T03:10:30.773568", "MEAN_MOTION": 14.03976749, "ECCENTRICITY": 0.01640632, "INCLINATION": 98.7018, "RA_OF_ASC_NODE": 125.3204, "ARG_OF_PERICENTER": 69.7897, "MEAN_ANOMALY": 292.0828, "EPHEMERIS_TYPE": 0, "CLASSIFICATION_TYPE": "U", "NORAD_CAT_ID": 33664, "ELEMENT_SET_NO": 999, "REV_AT_EPOCH": 90590, "BSTAR": 0.00053085125, "MEAN_MOTION_DOT": 9.05e-06, "MEAN_MOTION_DDOT": 0}, "tle": {"line1": "1 33664U 99025DEZ 25336.13230062  .00000905  00000+0  53085-3 0  9990", "line2": "2 33664  98.7018 125.3204 0164063  69.7897 292.0828 14.03976749905904"}}, "geometry": {"type": "Point", "coordinates": [128.9593456665658, -2.8100100548903457]}}, {"type": "Feature", "properties": {"norad_id": 33665, "name": "FENGYUN 1C DEB", "group": "fengyun-1c-debris", "lat": 56.84381026383643, "lon": -68.89985792599414, "alt_km": 549.1046675861135, "timestamp": "2025-12-05T11:32:56.305429+00:00", "meta": {"OBJECT_NAME": "FENGYUN 1C DEB", "OBJECT_ID": "1999-025DFA", "EPOCH": "2025-11-30T14:39:07.562016", "MEAN_MOTION": 14.03506601, "ECCENTRICITY": 0.0456092, "INCLINATION": 99.0223, "RA_OF_ASC_NODE": 92.1738, "ARG_OF_PERICENTER": 126.0265, "MEAN_ANOMALY": 238.4072, "EPHEMERIS_TYPE": 0, "CLASSIFICATION_TYPE": "U", "NORAD_CAT_ID": 33665, "ELEMENT_SET_NO": 999, "REV_AT_EPOCH": 92421, "BSTAR": 0.0013543, "MEAN_MOTION_DOT": 5.359e-05, "MEAN_MOTION_DDOT": 0}, "tle": {"line1": "1 33665U 99025DFA 25334.61050419  .00005359  00000+0  13543-2 0  9990", "line2": "2 33665  99.0223  92.1738 0456092 126.0265 238.4072 14.03506601924218"}}, "geometry": {"type": "Point", "coordinates": [-68.89985792599414, 56.84381026383643]}}, {"type": "Feature", "properties": {"norad_id": 33673, "name": "FENGYUN 1C DEB", "group": "fengyun-1c-debris", "lat": -70.91604929274413, "lon": 54.610863697499724, "alt_km": 858.7871289810428, "timestamp": "2025-12-05T11:32:56.305439+00:00", "meta": {"OBJECT_NAME": "FENGYUN 1C DEB", "OBJECT_ID": "1999-025DFJ", "EPOCH": "2025-12-04T08:39:56.155104", "MEAN_MOTION": 13.95521484, "ECCENTRICITY": 0.0107273, "INCLINATION": 99.3447, "RA_OF_ASC_NODE": 25.055, "ARG_OF_PERICENTER": 247.0194, "MEAN_ANOMALY": 174.481, "EPHEMERIS_TYPE": 0, "CLASSIFICATION_TYPE": "U", "NORAD_CAT_ID": 33673, "ELEMENT_SET_NO": 999, "REV_AT_EPOCH": 89785, "BSTAR": 0.0011887, "MEAN_MOTION_DOT": 1.648e-05, "MEAN_MOTION_DDOT": 0}, "tle": {"line1": "1 33673U 99025DFJ 25338.36106661  .00001648  00000+0  11887-2 0  9992", "line2": "2 33673  99.3447  25.0550 0107273 247.0194 174.4810 13.95521484897858"}}, "geometry": {"type": "Point", "coordinates": [54.610863697499724, -70.91604929274413]}}]}